KUIPER-00603            
1 69287U 26118W   26158.50004630 -.00018847  00000+0 -49747-3 0  9993
2 69287  51.8666 100.1117 0005641 126.1789 186.4320 15.37340973  2353
KUIPER-00605            
1 69288U 26118X   26158.50004630 -.00019824  00000+0 -53133-3 0  9994
2 69288  51.8654 100.1424 0007732 130.7243 167.0184 15.36889634  2197
KUIPER-00606            
1 69289U 26118Y   26158.50004630 -.00016693  00000+0 -43591-3 0  9993
2 69289  51.8692 100.0946 0004707 118.9330 200.9907 15.37581795  2044
KUIPER-00607            
1 69290U 26118Z   26158.50004630 -.00018129  00000+0 -47912-3 0  9992
2 69290  51.8675 100.1161 0006409 123.8236 186.2498 15.37266430  2001
KUIPER-00608            
1 69291U 26118AA  26158.50004630 -.00020698  00000+0 -57033-3 0  9992
2 69291  51.8594 100.1766 0009901 143.1954 137.8963 15.36042938  1973
KUIPER-00610            
1 69292U 26118AB  26158.50004630 -.00016121  00000+0 -41335-3 0  9997
2 69292  51.8718 100.0556 0002865 103.0770 233.0385 15.38120998  1894
KUIPER-00613            
1 69293U 26118AC  26158.50004630 -.00017336  00000+0 -48730-3 0  9993
2 69293  51.8618 100.1994 0010135 154.2986 115.5673 15.35295083  1302
KUIPER-00618            
1 69294U 26118AD  26158.50004630 -.00014406  00000+0 -36350-3 0  9994
2 69294  51.8718 100.0296 0002158  63.9846 284.2934 15.38514437  1309
KUIPER-00620            
1 69295U 26118AE  26158.50004630 -.00016168  00000+0 -41344-3 0  9991
2 69295  51.8713 100.0517 0002955  89.9427 248.8495 15.38204719  2431
STARLINK-37501          
1 69296U 26119A   26158.50004630 -.00664038  00000+0 -38102-2 0  9995
2 69296  97.2831 183.7836 0001167  99.4894 132.6587 15.80394716  2332
STARLINK-37496          
1 69297U 26119B   26158.50004630 -.00730480  00000+0 -42231-2 0  9999
2 69297  97.2835 183.7829 0001011 102.8255 126.6000 15.80397690  2334
STARLINK-37519          
1 69298U 26119C   26158.50004630  .00084105  00000+0  43617-3 0  9994
2 69298  97.2834 183.7885 0001271  97.6561 145.0161 15.80787898  2331
STARLINK-37455          
1 69299U 26119D   26158.50004630 -.01942362  00000+0 -11229-1 0  9998
2 69299  97.2831 183.7863 0001867  75.3742 162.8561 15.81584110  2334
STARLINK-37456          
1 69300U 26119E   26158.50004630 -.00754114  00000+0 -41782-2 0  9994
2 69300  97.2833 183.7898 0001168  88.8179 158.0233 15.81378641  2337
STARLINK-37630          
1 69301U 26119F   26158.50004630  .00179853  00000+0  92390-3 0  9996
2 69301  97.2833 183.7914 0000509 106.8713 142.8968 15.80734259  2493
STARLINK-37804          
1 69302U 26119G   26158.50004630  .00181133  00000+0  92964-3 0  9998
2 69302  97.2834 183.7921 0000768 150.5826 100.8681 15.80750860  2493
STARLINK-37730          
1 69303U 26119H   26158.50004630 -.00747705  00000+0 -41534-2 0  9990
2 69303  97.2830 183.7955 0000987  80.0779 179.5578 15.81308043  2495
STARLINK-37731          
1 69304U 26119J   26158.50004630  .00109662  00000+0  56736-3 0  9994
2 69304  97.2833 183.7958 0001547  91.4445 169.2171 15.80766215  2494
STARLINK-37734          
1 69305U 26119K   26158.50004630 -.00586194  00000+0 -32102-2 0  9996
2 69305  97.2834 183.7977 0001065 110.9674 154.6696 15.81217565  2493
STARLINK-37701          
1 69306U 26119L   26158.50004630  .00117870  00000+0  60920-3 0  9996
2 69306  97.2834 183.7984 0000554  92.1528 175.2429 15.80766784  2497
STARLINK-37732          
1 69307U 26119M   26158.50004630  .00183487  00000+0  94194-3 0  9994
2 69307  97.2836 183.7999 0001508  94.9960 174.7826 15.80739377  2499
STARLINK-37689          
1 69308U 26119N   26158.50004630 -.01579097  00000+0 -88796-2 0  9994
2 69308  97.2833 183.8020 0001014  96.4456 179.3335 15.82046632  2495
STARLINK-37619          
1 69309U 26119P   26158.50004630 -.00934391  00000+0 -52659-2 0  9995
2 69309  97.2831 183.8030 0001618  91.4233 187.7270 15.81457808  2494
STARLINK-37794          
1 69310U 26119Q   26158.50004630 -.02204546  00000+0 -11775-1 0  9994
2 69310  97.2833 183.8080 0001449 109.4552 179.7672 15.83711175  2498
STARLINK-37795          
1 69311U 26119R   26158.50004630 -.02346528  00000+0 -12189-1 0  9992
2 69311  97.2832 183.8078 0001534 111.4195 179.5213 15.83939813  2496
STARLINK-37790          
1 69312U 26119S   26158.50004630 -.02380362  00000+0 -12206-1 0  9997
2 69312  97.2832 183.8095 0001302  98.3915 197.1896 15.84258540  2497
STARLINK-37676          
1 69313U 26119T   26158.50004630 -.02292308  00000+0 -11256-1 0  9994
2 69313  97.2831 183.8131 0001304 104.3901 198.8330 15.85607408  2496
STARLINK-37617          
1 69314U 26119U   26158.50004630 -.02304079  00000+0 -11160-1 0  9998
2 69314  97.2832 183.8142 0001374 104.5809 202.6072 15.85907457  2490
STARLINK-37627          
1 69315U 26119V   26158.50004630 -.02318336  00000+0 -11381-1 0  9995
2 69315  97.2832 183.8157 0001212 103.3395 206.5336 15.85660225  2490
STARLINK-37738          
1 69316U 26119W   26158.50004630 -.02200751  00000+0 -12219-1 0  9998
2 69316  97.2835 183.8135 0001514 105.9617 197.6170 15.82890317  2490
