OBJECT_NAME,OBJECT_ID,EPOCH,MEAN_MOTION,ECCENTRICITY,INCLINATION,RA_OF_ASC_NODE,ARG_OF_PERICENTER,MEAN_ANOMALY,EPHEMERIS_TYPE,CLASSIFICATION_TYPE,NORAD_CAT_ID,ELEMENT_SET_NO,REV_AT_EPOCH,BSTAR,MEAN_MOTION_DOT,MEAN_MOTION_DDOT
KUIPER-00603,2026-118W,2026-06-07T12:00:04.000320,15.37340973,.0005641,51.8666,100.1117,126.1789,186.4320,0,U,69287,999,235,-.49747E-3,-.18847E-3,0
KUIPER-00605,2026-118X,2026-06-07T12:00:04.000320,15.36889634,.0007732,51.8654,100.1424,130.7243,167.0184,0,U,69288,999,219,-.53133E-3,-.19824E-3,0
KUIPER-00606,2026-118Y,2026-06-07T12:00:04.000320,15.37581795,.0004707,51.8692,100.0946,118.9330,200.9907,0,U,69289,999,204,-.43591E-3,-.16693E-3,0
KUIPER-00607,2026-118Z,2026-06-07T12:00:04.000320,15.37266430,.0006409,51.8675,100.1161,123.8236,186.2498,0,U,69290,999,200,-.47912E-3,-.18129E-3,0
KUIPER-00608,2026-118AA,2026-06-07T12:00:04.000320,15.36042938,.0009901,51.8594,100.1766,143.1954,137.8963,0,U,69291,999,197,-.57033E-3,-.20698E-3,0
KUIPER-00610,2026-118AB,2026-06-07T12:00:04.000320,15.38120998,.0002865,51.8718,100.0556,103.0770,233.0385,0,U,69292,999,189,-.41335E-3,-.16121E-3,0
KUIPER-00613,2026-118AC,2026-06-07T12:00:04.000320,15.35295083,.0010135,51.8618,100.1994,154.2986,115.5673,0,U,69293,999,130,-.4873E-3,-.17336E-3,0
KUIPER-00618,2026-118AD,2026-06-07T12:00:04.000320,15.38514437,.0002158,51.8718,100.0296,63.9846,284.2934,0,U,69294,999,130,-.3635E-3,-.14406E-3,0
KUIPER-00620,2026-118AE,2026-06-07T12:00:04.000320,15.38204719,.0002955,51.8713,100.0517,89.9427,248.8495,0,U,69295,999,243,-.41344E-3,-.16168E-3,0
STARLINK-37501,2026-119A,2026-06-07T12:00:04.000320,15.80394716,.0001167,97.2831,183.7836,99.4894,132.6587,0,U,69296,999,233,-.38102E-2,-.664038E-2,0
STARLINK-37496,2026-119B,2026-06-07T12:00:04.000320,15.80397690,.0001011,97.2835,183.7829,102.8255,126.6000,0,U,69297,999,233,-.42231E-2,-.73048E-2,0
STARLINK-37519,2026-119C,2026-06-07T12:00:04.000320,15.80787898,.0001271,97.2834,183.7885,97.6561,145.0161,0,U,69298,999,233,.43617E-3,.84105E-3,0
STARLINK-37455,2026-119D,2026-06-07T12:00:04.000320,15.81584110,.0001867,97.2831,183.7863,75.3742,162.8561,0,U,69299,999,233,-.11229E-1,-.1942362E-1,0
STARLINK-37456,2026-119E,2026-06-07T12:00:04.000320,15.81378641,.0001168,97.2833,183.7898,88.8179,158.0233,0,U,69300,999,233,-.41782E-2,-.754114E-2,0
STARLINK-37630,2026-119F,2026-06-07T12:00:04.000320,15.80734259,.0000509,97.2833,183.7914,106.8713,142.8968,0,U,69301,999,249,.9239E-3,.179853E-2,0
STARLINK-37804,2026-119G,2026-06-07T12:00:04.000320,15.80750860,.0000768,97.2834,183.7921,150.5826,100.8681,0,U,69302,999,249,.92964E-3,.181133E-2,0
STARLINK-37730,2026-119H,2026-06-07T12:00:04.000320,15.81308043,.0000987,97.2830,183.7955,80.0779,179.5578,0,U,69303,999,249,-.41534E-2,-.747705E-2,0
STARLINK-37731,2026-119J,2026-06-07T12:00:04.000320,15.80766215,.0001547,97.2833,183.7958,91.4445,169.2171,0,U,69304,999,249,.56736E-3,.109662E-2,0
STARLINK-37734,2026-119K,2026-06-07T12:00:04.000320,15.81217565,.0001065,97.2834,183.7977,110.9674,154.6696,0,U,69305,999,249,-.32102E-2,-.586194E-2,0
STARLINK-37701,2026-119L,2026-06-07T12:00:04.000320,15.80766784,.0000554,97.2834,183.7984,92.1528,175.2429,0,U,69306,999,249,.6092E-3,.11787E-2,0
STARLINK-37732,2026-119M,2026-06-07T12:00:04.000320,15.80739377,.0001508,97.2836,183.7999,94.9960,174.7826,0,U,69307,999,249,.94194E-3,.183487E-2,0
STARLINK-37689,2026-119N,2026-06-07T12:00:04.000320,15.82046632,.0001014,97.2833,183.8020,96.4456,179.3335,0,U,69308,999,249,-.88796E-2,-.1579097E-1,0
STARLINK-37619,2026-119P,2026-06-07T12:00:04.000320,15.81457808,.0001618,97.2831,183.8030,91.4233,187.7270,0,U,69309,999,249,-.52659E-2,-.934391E-2,0
STARLINK-37794,2026-119Q,2026-06-07T12:00:04.000320,15.83711175,.0001449,97.2833,183.8080,109.4552,179.7672,0,U,69310,999,249,-.11775E-1,-.2204546E-1,0
STARLINK-37795,2026-119R,2026-06-07T12:00:04.000320,15.83939813,.0001534,97.2832,183.8078,111.4195,179.5213,0,U,69311,999,249,-.12189E-1,-.2346528E-1,0
STARLINK-37790,2026-119S,2026-06-07T12:00:04.000320,15.84258540,.0001302,97.2832,183.8095,98.3915,197.1896,0,U,69312,999,249,-.12206E-1,-.2380362E-1,0
STARLINK-37676,2026-119T,2026-06-07T12:00:04.000320,15.85607408,.0001304,97.2831,183.8131,104.3901,198.8330,0,U,69313,999,249,-.11256E-1,-.2292308E-1,0
STARLINK-37617,2026-119U,2026-06-07T12:00:04.000320,15.85907457,.0001374,97.2832,183.8142,104.5809,202.6072,0,U,69314,999,249,-.1116E-1,-.2304079E-1,0
STARLINK-37627,2026-119V,2026-06-07T12:00:04.000320,15.85660225,.0001212,97.2832,183.8157,103.3395,206.5336,0,U,69315,999,249,-.11381E-1,-.2318336E-1,0
STARLINK-37738,2026-119W,2026-06-07T12:00:04.000320,15.82890317,.0001514,97.2835,183.8135,105.9617,197.6170,0,U,69316,999,249,-.12219E-1,-.2200751E-1,0
